[{"OBJECT_NAME":"JILIN-1 GAOFEN 03D50","OBJECT_ID":"2022-167J","EPOCH":"2026-03-09T22:35:59.947584","MEAN_MOTION":15.32279726,"ECCENTRICITY":0.00065764,"INCLINATION":97.6731,"RA_OF_ASC_NODE":232.9458,"ARG_OF_PERICENTER":101.1473,"MEAN_ANOMALY":259.0507,"EPHEMERIS_TYPE":0,"CLASSIFICATION_TYPE":"U","NORAD_CAT_ID":54690,"ELEMENT_SET_NO":999,"REV_AT_EPOCH":18014,"BSTAR":0.00049467973,"MEAN_MOTION_DOT":0.00015359,"MEAN_MOTION_DDOT":0},{"OBJECT_NAME":"STARLINK-35167","OBJECT_ID":"2025-216C","EPOCH":"2026-03-09T22:42:50.499648","MEAN_MOTION":15.30204669,"ECCENTRICITY":0.00011938,"INCLINATION":53.1587,"RA_OF_ASC_NODE":331.6501,"ARG_OF_PERICENTER":109.2269,"MEAN_ANOMALY":250.8861,"EPHEMERIS_TYPE":0,"CLASSIFICATION_TYPE":"U","NORAD_CAT_ID":65736,"ELEMENT_SET_NO":999,"REV_AT_EPOCH":2658,"BSTAR":0.00077745284,"MEAN_MOTION_DOT":0.00022741,"MEAN_MOTION_DDOT":0}]
